[{"OBJECT_NAME":"KUIPER-00104","OBJECT_ID":"2025-171L","EPOCH":"2026-03-09T10:35:04.494336","MEAN_MOTION":14.79932172,"ECCENTRICITY":5.7e-5,"INCLINATION":51.9005,"RA_OF_ASC_NODE":159.1319,"ARG_OF_PERICENTER":76.311,"MEAN_ANOMALY":283.7915,"EPHEMERIS_TYPE":0,"CLASSIFICATION_TYPE":"U","NORAD_CAT_ID":65142,"ELEMENT_SET_NO":999,"REV_AT_EPOCH":3285,"BSTAR":0.00077462132,"MEAN_MOTION_DOT":5.689e-5,"MEAN_MOTION_DDOT":0},{"OBJECT_NAME":"ORSTED","OBJECT_ID":"1999-008B","EPOCH":"2026-03-09T17:21:14.075712","MEAN_MOTION":14.51680933,"ECCENTRICITY":0.01330709,"INCLINATION":96.4811,"RA_OF_ASC_NODE":358.8375,"ARG_OF_PERICENTER":145.0719,"MEAN_ANOMALY":215.9303,"EPHEMERIS_TYPE":0,"CLASSIFICATION_TYPE":"U","NORAD_CAT_ID":25635,"ELEMENT_SET_NO":999,"REV_AT_EPOCH":42753,"BSTAR":0.00016967851,"MEAN_MOTION_DOT":7.32e-6,"MEAN_MOTION_DDOT":0}]
